TIANMU-1 10             
1 57402U 23101D   26062.48478734  .00009292  00000+0  33014-3 0  9991
2 57402  97.2763 115.7657 0006870 150.4481 209.7149 15.29209632145483
FENGYUN 3F              
1 57490U 23111A   26062.48695061  .00000096  00000+0  65644-4 0  9991
2 57490  98.6941 134.4262 0001340  82.5909 277.5419 14.19917725133869
ARKTIKA-M 2             
1 58584U 23198A   26062.08261615  .00000137  00000+0  00000+0 0  9997
2 58584  63.2203 166.1216 6876964 267.7841  18.8417  2.00614888 16195
TIANMU-1 11             
1 58645U 23205A   26062.51040508  .00007575  00000+0  29898-3 0  9991
2 58645  97.3546  85.7616 0009735  29.0502 331.1276 15.25777598121406
TIANMU-1 12             
1 58646U 23205B   26062.54252459  .00008512  00000+0  33650-3 0  9998
2 58646  97.3534  85.5736 0007527  15.8162 344.3310 15.25700869121397
TIANMU-1 13             
1 58647U 23205C   26062.50803733  .00007723  00000+0  30521-3 0  9999
2 58647  97.3562  85.7758 0007178 357.1127   3.0068 15.25749193121381
TIANMU-1 14             
1 58648U 23205D   26062.49251385  .00008002  00000+0  31626-3 0  9996
2 58648  97.3496  85.0349 0008086   0.2240 359.9000 15.25726342121388
TIANMU-1 19             
1 58660U 23208A   26062.51575538  .00012036  00000+0  42097-3 0  9991
2 58660  97.4387 178.4974 0004333 343.7333  16.3767 15.29672882121165
TIANMU-1 20             
1 58661U 23208B   26062.57022685  .00011722  00000+0  39518-3 0  9993
2 58661  97.4326 179.0794 0006652 349.2198  10.8899 15.30863735121258
TIANMU-1 21             
1 58662U 23208C   26062.51143935  .00013516  00000+0  42802-3 0  9993
2 58662  97.4380 181.2717 0006402 342.7533  17.3491 15.32847402121360
TIANMU-1 22             
1 58663U 23208D   26062.46643963  .00011372  00000+0  40253-3 0  9990
2 58663  97.4381 178.4631 0003619  16.1366 343.9988 15.29299599121169
TIANMU-1 15             
1 58700U 24004A   26062.55585451  .00007644  00000+0  30241-3 0  9997
2 58700  97.4660 248.8029 0007175  11.4650 348.6750 15.25721598119665
TIANMU-1 16             
1 58701U 24004B   26062.53947485  .00008786  00000+0  34685-3 0  9999
2 58701  97.4601 248.1142 0005733  17.2085 342.9346 15.25755234119666
TIANMU-1 17             
1 58702U 24004C   26062.52195186  .00008779  00000+0  34623-3 0  9996
2 58702  97.4633 248.5474 0004950  20.6197 339.5240 15.25791761119655
TIANMU-1 18             
1 58703U 24004D   26062.50691204  .00008225  00000+0  32509-3 0  9994
2 58703  97.4651 248.7428 0004349  21.9658 338.1765 15.25742498119655
INSAT-3DS               
1 58990U 24033A   26062.51949163 -.00000170  00000+0  00000+0 0  9994
2 58990   0.0580 264.9057 0002315  91.4864  73.9666  1.00270334 46009
METEOR-M2 4             
1 59051U 24039A   26062.52932362  .00000031  00000+0  33660-4 0  9991
2 59051  98.6895  23.2242 0008067 111.8102 248.3934 14.22415934104246
