[{"OBJECT_NAME":"TIANMU-1 10","OBJECT_ID":"2023-101D","EPOCH":"2026-03-03T11:38:05.626176","MEAN_MOTION":15.29209632,"ECCENTRICITY":0.000687,"INCLINATION":97.2763,"RA_OF_ASC_NODE":115.7657,"ARG_OF_PERICENTER":150.4481,"MEAN_ANOMALY":209.7149,"EPHEMERIS_TYPE":0,"CLASSIFICATION_TYPE":"U","NORAD_CAT_ID":57402,"ELEMENT_SET_NO":999,"REV_AT_EPOCH":14548,"BSTAR":0.00033014,"MEAN_MOTION_DOT":9.292e-5,"MEAN_MOTION_DDOT":0},{"OBJECT_NAME":"FENGYUN 3F","OBJECT_ID":"2023-111A","EPOCH":"2026-03-03T11:41:12.532704","MEAN_MOTION":14.19917725,"ECCENTRICITY":0.000134,"INCLINATION":98.6941,"RA_OF_ASC_NODE":134.4262,"ARG_OF_PERICENTER":82.5909,"MEAN_ANOMALY":277.5419,"EPHEMERIS_TYPE":0,"CLASSIFICATION_TYPE":"U","NORAD_CAT_ID":57490,"ELEMENT_SET_NO":999,"REV_AT_EPOCH":13386,"BSTAR":6.5644e-5,"MEAN_MOTION_DOT":9.6e-7,"MEAN_MOTION_DDOT":0},{"OBJECT_NAME":"ARKTIKA-M 2","OBJECT_ID":"2023-198A","EPOCH":"2026-03-03T01:58:58.035360","MEAN_MOTION":2.00614888,"ECCENTRICITY":0.6876964,"INCLINATION":63.2203,"RA_OF_ASC_NODE":166.1216,"ARG_OF_PERICENTER":267.7841,"MEAN_ANOMALY":18.8417,"EPHEMERIS_TYPE":0,"CLASSIFICATION_TYPE":"U","NORAD_CAT_ID":58584,"ELEMENT_SET_NO":999,"REV_AT_EPOCH":1619,"BSTAR":0,"MEAN_MOTION_DOT":1.37e-6,"MEAN_MOTION_DDOT":0},{"OBJECT_NAME":"TIANMU-1 11","OBJECT_ID":"2023-205A","EPOCH":"2026-03-03T12:14:58.998912","MEAN_MOTION":15.25777598,"ECCENTRICITY":0.0009735,"INCLINATION":97.3546,"RA_OF_ASC_NODE":85.7616,"ARG_OF_PERICENTER":29.0502,"MEAN_ANOMALY":331.1276,"EPHEMERIS_TYPE":0,"CLASSIFICATION_TYPE":"U","NORAD_CAT_ID":58645,"ELEMENT_SET_NO":999,"REV_AT_EPOCH":12140,"BSTAR":0.00029898,"MEAN_MOTION_DOT":7.575e-5,"MEAN_MOTION_DDOT":0},{"OBJECT_NAME":"TIANMU-1 12","OBJECT_ID":"2023-205B","EPOCH":"2026-03-03T13:01:14.124576","MEAN_MOTION":15.25700869,"ECCENTRICITY":0.0007527,"INCLINATION":97.3534,"RA_OF_ASC_NODE":85.5736,"ARG_OF_PERICENTER":15.8162,"MEAN_ANOMALY":344.331,"EPHEMERIS_TYPE":0,"CLASSIFICATION_TYPE":"U","NORAD_CAT_ID":58646,"ELEMENT_SET_NO":999,"REV_AT_EPOCH":12139,"BSTAR":0.0003365,"MEAN_MOTION_DOT":8.512e-5,"MEAN_MOTION_DDOT":0},{"OBJECT_NAME":"TIANMU-1 13","OBJECT_ID":"2023-205C","EPOCH":"2026-03-03T12:11:34.425312","MEAN_MOTION":15.25749193,"ECCENTRICITY":0.0007178,"INCLINATION":97.3562,"RA_OF_ASC_NODE":85.7758,"ARG_OF_PERICENTER":357.1127,"MEAN_ANOMALY":3.0068,"EPHEMERIS_TYPE":0,"CLASSIFICATION_TYPE":"U","NORAD_CAT_ID":58647,"ELEMENT_SET_NO":999,"REV_AT_EPOCH":12138,"BSTAR":0.00030521,"MEAN_MOTION_DOT":7.723e-5,"MEAN_MOTION_DDOT":0},{"OBJECT_NAME":"TIANMU-1 14","OBJECT_ID":"2023-205D","EPOCH":"2026-03-03T11:49:13.196640","MEAN_MOTION":15.25726342,"ECCENTRICITY":0.0008086,"INCLINATION":97.3496,"RA_OF_ASC_NODE":85.0349,"ARG_OF_PERICENTER":0.224,"MEAN_ANOMALY":359.9,"EPHEMERIS_TYPE":0,"CLASSIFICATION_TYPE":"U","NORAD_CAT_ID":58648,"ELEMENT_SET_NO":999,"REV_AT_EPOCH":12138,"BSTAR":0.00031626,"MEAN_MOTION_DOT":8.002e-5,"MEAN_MOTION_DDOT":0},{"OBJECT_NAME":"TIANMU-1 19","OBJECT_ID":"2023-208A","EPOCH":"2026-03-03T12:22:41.264832","MEAN_MOTION":15.29672882,"ECCENTRICITY":0.0004333,"INCLINATION":97.4387,"RA_OF_ASC_NODE":178.4974,"ARG_OF_PERICENTER":343.7333,"MEAN_ANOMALY":16.3767,"EPHEMERIS_TYPE":0,"CLASSIFICATION_TYPE":"U","NORAD_CAT_ID":58660,"ELEMENT_SET_NO":999,"REV_AT_EPOCH":12116,"BSTAR":0.00042097,"MEAN_MOTION_DOT":0.00012036,"MEAN_MOTION_DDOT":0},{"OBJECT_NAME":"TIANMU-1 20","OBJECT_ID":"2023-208B","EPOCH":"2026-03-03T13:41:07.599840","MEAN_MOTION":15.30863735,"ECCENTRICITY":0.0006652,"INCLINATION":97.4326,"RA_OF_ASC_NODE":179.0794,"ARG_OF_PERICENTER":349.2198,"MEAN_ANOMALY":10.8899,"EPHEMERIS_TYPE":0,"CLASSIFICATION_TYPE":"U","NORAD_CAT_ID":58661,"ELEMENT_SET_NO":999,"REV_AT_EPOCH":12125,"BSTAR":0.00039518,"MEAN_MOTION_DOT":0.00011722,"MEAN_MOTION_DDOT":0},{"OBJECT_NAME":"TIANMU-1 21","OBJECT_ID":"2023-208C","EPOCH":"2026-03-03T12:16:28.359840","MEAN_MOTION":15.32847402,"ECCENTRICITY":0.0006402,"INCLINATION":97.438,"RA_OF_ASC_NODE":181.2717,"ARG_OF_PERICENTER":342.7533,"MEAN_ANOMALY":17.3491,"EPHEMERIS_TYPE":0,"CLASSIFICATION_TYPE":"U","NORAD_CAT_ID":58662,"ELEMENT_SET_NO":999,"REV_AT_EPOCH":12136,"BSTAR":0.00042802,"MEAN_MOTION_DOT":0.00013516,"MEAN_MOTION_DDOT":0},{"OBJECT_NAME":"TIANMU-1 22","OBJECT_ID":"2023-208D","EPOCH":"2026-03-03T11:11:40.384032","MEAN_MOTION":15.29299599,"ECCENTRICITY":0.0003619,"INCLINATION":97.4381,"RA_OF_ASC_NODE":178.4631,"ARG_OF_PERICENTER":16.1366,"MEAN_ANOMALY":343.9988,"EPHEMERIS_TYPE":0,"CLASSIFICATION_TYPE":"U","NORAD_CAT_ID":58663,"ELEMENT_SET_NO":999,"REV_AT_EPOCH":12116,"BSTAR":0.00040253,"MEAN_MOTION_DOT":0.00011372,"MEAN_MOTION_DDOT":0},{"OBJECT_NAME":"TIANMU-1 15","OBJECT_ID":"2024-004A","EPOCH":"2026-03-03T13:20:25.829664","MEAN_MOTION":15.25721598,"ECCENTRICITY":0.0007175,"INCLINATION":97.466,"RA_OF_ASC_NODE":248.8029,"ARG_OF_PERICENTER":11.465,"MEAN_ANOMALY":348.675,"EPHEMERIS_TYPE":0,"CLASSIFICATION_TYPE":"U","NORAD_CAT_ID":58700,"ELEMENT_SET_NO":999,"REV_AT_EPOCH":11966,"BSTAR":0.00030241,"MEAN_MOTION_DOT":7.644e-5,"MEAN_MOTION_DDOT":0},{"OBJECT_NAME":"TIANMU-1 16","OBJECT_ID":"2024-004B","EPOCH":"2026-03-03T12:56:50.627040","MEAN_MOTION":15.25755234,"ECCENTRICITY":0.0005733,"INCLINATION":97.4601,"RA_OF_ASC_NODE":248.1142,"ARG_OF_PERICENTER":17.2085,"MEAN_ANOMALY":342.9346,"EPHEMERIS_TYPE":0,"CLASSIFICATION_TYPE":"U","NORAD_CAT_ID":58701,"ELEMENT_SET_NO":999,"REV_AT_EPOCH":11966,"BSTAR":0.00034685,"MEAN_MOTION_DOT":8.786e-5,"MEAN_MOTION_DDOT":0},{"OBJECT_NAME":"TIANMU-1 17","OBJECT_ID":"2024-004C","EPOCH":"2026-03-03T12:31:36.640704","MEAN_MOTION":15.25791761,"ECCENTRICITY":0.000495,"INCLINATION":97.4633,"RA_OF_ASC_NODE":248.5474,"ARG_OF_PERICENTER":20.6197,"MEAN_ANOMALY":339.524,"EPHEMERIS_TYPE":0,"CLASSIFICATION_TYPE":"U","NORAD_CAT_ID":58702,"ELEMENT_SET_NO":999,"REV_AT_EPOCH":11965,"BSTAR":0.00034623,"MEAN_MOTION_DOT":8.779e-5,"MEAN_MOTION_DDOT":0},{"OBJECT_NAME":"TIANMU-1 18","OBJECT_ID":"2024-004D","EPOCH":"2026-03-03T12:09:57.200256","MEAN_MOTION":15.25742498,"ECCENTRICITY":0.0004349,"INCLINATION":97.4651,"RA_OF_ASC_NODE":248.7428,"ARG_OF_PERICENTER":21.9658,"MEAN_ANOMALY":338.1765,"EPHEMERIS_TYPE":0,"CLASSIFICATION_TYPE":"U","NORAD_CAT_ID":58703,"ELEMENT_SET_NO":999,"REV_AT_EPOCH":11965,"BSTAR":0.00032509,"MEAN_MOTION_DOT":8.225e-5,"MEAN_MOTION_DDOT":0},{"OBJECT_NAME":"INSAT-3DS","OBJECT_ID":"2024-033A","EPOCH":"2026-03-03T12:28:04.076832","MEAN_MOTION":1.00270334,"ECCENTRICITY":0.0002315,"INCLINATION":0.058,"RA_OF_ASC_NODE":264.9057,"ARG_OF_PERICENTER":91.4864,"MEAN_ANOMALY":73.9666,"EPHEMERIS_TYPE":0,"CLASSIFICATION_TYPE":"U","NORAD_CAT_ID":58990,"ELEMENT_SET_NO":999,"REV_AT_EPOCH":4600,"BSTAR":0,"MEAN_MOTION_DOT":-1.7e-6,"MEAN_MOTION_DDOT":0},{"OBJECT_NAME":"METEOR-M2 4","OBJECT_ID":"2024-039A","EPOCH":"2026-03-03T12:42:13.560768","MEAN_MOTION":14.22415934,"ECCENTRICITY":0.0008067,"INCLINATION":98.6895,"RA_OF_ASC_NODE":23.2242,"ARG_OF_PERICENTER":111.8102,"MEAN_ANOMALY":248.3934,"EPHEMERIS_TYPE":0,"CLASSIFICATION_TYPE":"U","NORAD_CAT_ID":59051,"ELEMENT_SET_NO":999,"REV_AT_EPOCH":10424,"BSTAR":3.366e-5,"MEAN_MOTION_DOT":3.1e-7,"MEAN_MOTION_DDOT":0}]
